NORAD_CAT_ID,OBJECT_NAME,OBJECT_TYPE,EPOCH,MEAN_MOTION,ECCENTRICITY,INCLINATION,RA_OF_ASC_NODE,ARG_OF_PERICENTER,MEAN_ANOMALY,BSTAR,MEAN_MOTION_DOT,MEAN_MOTION_DDOT,TLE_LINE0,TLE_LINE1,TLE_LINE2,SEMIMAJOR_AXIS,PERIOD,APOGEE,PERIGEE,DECAYED
52602.0,STARLINK-4012,PAYLOAD,2023-04-27 19:19:18,15.08872757,9.77e-05,53.2156,298.77,84.0479,276.0624,0.00059825,9.255e-05,0.0,0 STARLINK-4012,1 52602U 22052E   23117.80507588  .00009255  00000-0  59825-3 0  9994,2 52602  53.2156 298.7700 0000977  84.0479 276.0624 15.08872757 53181,6917.78,95.435,540.321,538.969,0.0
52602.0,STARLINK-4012,PAYLOAD,2023-04-28 04:51:37,15.08855251,0.0001304,53.2154,296.9858,78.5197,281.5942,-7.5375e-05,-1.488e-05,0.0,0 STARLINK-4012,1 52602U 22052E   23118.20251502 -.00001488  00000-0 -75375-4 0  9992,2 52602  53.2154 296.9858 0001304  78.5197 281.5942 15.08855251 53244,6917.834,95.437,540.601,538.797,0.0
52602.0,STARLINK-4012,PAYLOAD,2023-04-28 12:48:32,15.08846058,0.000111,53.2152,295.4991,85.7905,274.3214,-0.00022936,-3.937e-05,0.0,0 STARLINK-4012,1 52602U 22052E   23118.53371452 -.00003937  00000-0 -22936-3 0  9990,2 52602  53.2152 295.4991 0001110  85.7905 274.3214 15.08846058 53726,6917.862,95.437,540.495,538.959,0.0
52602.0,STARLINK-4012,PAYLOAD,2023-04-29 04:42:24,15.08841182,0.0001129,53.215,292.5254,83.1555,276.9565,-0.00012868,-2.335e-05,0.0,0 STARLINK-4012,1 52602U 22052E   23119.19611467 -.00002335  00000-0 -12868-3 0  9990,2 52602  53.2150 292.5254 0001129  83.1555 276.9565 15.08841182 53390,6917.877,95.437,540.523,538.961,0.0
52602.0,STARLINK-4012,PAYLOAD,2023-04-29 11:03:56,15.08841015,0.0001115,53.215,291.336,85.2695,274.8424,-9.4333e-05,-1.789e-05,0.0,0 STARLINK-4012,1 52602U 22052E   23119.46107553 -.00001789  00000-0 -94333-4 0  9996,2 52602  53.2150 291.3360 0001115  85.2695 274.8424 15.08841015 53866,6917.877,95.437,540.514,538.971,0.0
52602.0,STARLINK-4012,PAYLOAD,2023-04-30 10:54:44,15.08838086,0.000125,53.2151,286.8763,86.1117,274.0018,0.0001344,1.852e-05,0.0,0 STARLINK-4012,1 52602U 22052E   23120.45467880  .00001852  00000-0  13440-3 0  9997,2 52602  53.2151 286.8763 0001250  86.1117 274.0018 15.08838086 54015,6917.886,95.438,540.616,538.887,0.0
52602.0,STARLINK-4012,PAYLOAD,2023-04-30 15:40:53,15.08838221,0.0001197,53.2147,285.9835,85.8311,274.2817,0.00013461,1.855e-05,0.0,0 STARLINK-4012,1 52602U 22052E   23120.65339945  .00001855  00000-0  13461-3 0  9995,2 52602  53.2147 285.9835 0001197  85.8311 274.2817 15.08838221 53617,6917.886,95.438,540.579,538.923,0.0
52602.0,STARLINK-4012,PAYLOAD,2023-05-01 13:56:18,15.08833594,0.0001159,53.2147,281.8197,95.486,264.6264,0.0002058,2.988e-05,0.0,0 STARLINK-4012,1 52602U 22052E   23121.58076446  .00002988  00000-0  20580-3 0  9990,2 52602  53.2147 281.8197 0001159  95.4860 264.6264 15.08833594 54187,6917.9,95.438,540.567,538.963,0.0
52602.0,STARLINK-4012,PAYLOAD,2023-05-01 18:42:26,15.08842598,0.0001184,53.2159,280.9274,97.4718,262.6409,6.4859e-05,7.45e-06,0.0,0 STARLINK-4012,1 52602U 22052E   23121.77947885  .00000745  00000-0  64859-4 0  9992,2 52602  53.2159 280.9274 0001184  97.4718 262.6409 15.08842598 53786,6917.872,95.437,540.557,538.918,0.0
52602.0,STARLINK-4012,PAYLOAD,2023-05-02 13:47:04,15.08843549,0.0001138,53.2158,277.3594,90.135,269.9772,0.0001305,1.79e-05,0.0,0 STARLINK-4012,1 52602U 22052E   23122.57435719  .00001790  00000-0  13050-3 0  9996,2 52602  53.2158 277.3594 0001138  90.1350 269.9772 15.08843549 54333,6917.87,95.437,540.522,538.947,0.0
52602.0,STARLINK-4012,PAYLOAD,2023-05-02 18:33:13,15.08849042,0.0001147,53.2161,276.4675,87.8933,272.219,0.00017802,2.547e-05,0.0,0 STARLINK-4012,1 52602U 22052E   23122.77307287  .00002547  00000-0  17802-3 0  9996,2 52602  53.2161 276.4675 0001147  87.8933 272.2190 15.08849042 54365,6917.853,95.437,540.511,538.924,0.0
52602.0,STARLINK-4012,PAYLOAD,2023-05-03 13:37:52,15.08835958,0.0001205,53.2172,272.8975,92.1533,267.9597,2.9547e-05,1.82e-06,0.0,0 STARLINK-4012,1 52602U 22052E   23123.56796592  .00000182  00000-0  29547-4 0  9998,2 52602  53.2172 272.8975 0001205  92.1533 267.9597 15.08835958 54059,6917.893,95.438,540.591,538.924,0.0
52602.0,STARLINK-4012,PAYLOAD,2023-05-03 18:24:01,15.08835999,0.0001177,53.2176,272.0052,92.3392,267.7735,1.0822e-05,-1.16e-06,0.0,0 STARLINK-4012,1 52602U 22052E   23123.76668566 -.00000116  00000-0  10822-4 0  9993,2 52602  53.2176 272.0052 0001177  92.3392 267.7735 15.08835999 54512,6917.893,95.438,540.572,538.943,0.0
52602.0,STARLINK-4012,PAYLOAD,2023-05-04 13:28:39,15.08836237,0.0001082,53.2162,268.438,88.6831,271.4285,-4.4201e-05,-9.91e-06,0.0,0 STARLINK-4012,1 52602U 22052E   23124.56156981 -.00000991  00000-0 -44201-4 0  9995,2 52602  53.2162 268.4380 0001082  88.6831 271.4285 15.08836237 54632,6917.892,95.438,540.505,539.008,0.0
52602.0,STARLINK-4012,PAYLOAD,2023-05-04 16:39:25,15.08839597,0.0001063,53.2158,267.8443,89.9916,270.1198,1.553e-05,-4.1e-07,0.0,0 STARLINK-4012,1 52602U 22052E   23124.69404640 -.00000041  00000-0  15530-4 0  9995,2 52602  53.2158 267.8443 0001063  89.9916 270.1198 15.08839597 54223,6917.882,95.438,540.482,539.011,0.0
52602.0,STARLINK-4012,PAYLOAD,2023-05-05 16:30:12,15.08836998,9.48e-05,53.2152,263.3857,97.4255,262.6844,0.00011951,1.615e-05,0.0,0 STARLINK-4012,1 52602U 22052E   23125.68764783  .00001615  00000-0  11951-3 0  9991,2 52602  53.2152 263.3857 0000948  97.4255 262.6844 15.08836998 54808,6917.89,95.438,540.41,539.099,0.0
52602.0,STARLINK-4012,PAYLOAD,2023-05-06 02:02:31,15.08844434,8.76e-05,53.2154,261.6007,86.6131,273.4961,7.5573e-05,9.15e-06,0.0,0 STARLINK-4012,1 52602U 22052E   23126.08508391  .00000915  00000-0  75573-4 0  9990,2 52602  53.2154 261.6007 0000876  86.6131 273.4961 15.08844434 54434,6917.867,95.437,540.338,539.126,0.0
52602.0,STARLINK-4012,PAYLOAD,2023-05-06 13:10:13,15.08842218,0.0001068,53.2155,259.519,85.5482,274.5632,0.00014303,1.989e-05,0.0,0 STARLINK-4012,1 52602U 22052E   23126.54876649  .00001989  00000-0  14303-3 0  9990,2 52602  53.2155 259.5190 0001068  85.5482 274.5632 15.08842218 54935,6917.874,95.437,540.477,539.0,0.0
52602.0,STARLINK-4012,PAYLOAD,2023-05-07 01:53:18,15.08842297,0.0001002,53.2155,257.1406,87.4082,272.7025,5.3793e-05,5.69e-06,0.0,0 STARLINK-4012,1 52602U 22052E   23127.07868698  .00000569  00000-0  53793-4 0  9994,2 52602  53.2155 257.1406 0001002  87.4082 272.7025 15.08842297 54588,6917.873,95.437,540.432,539.045,0.0
52602.0,STARLINK-4012,PAYLOAD,2023-05-07 13:01:01,15.0882949,0.0001636,53.2149,255.0524,82.4809,277.6369,8.1655e-06,-1.58e-06,0.0,0 STARLINK-4012,1 52602U 22052E   23127.54237904 -.00000158  00000-0  81655-5 0  9990,2 52602  53.2149 255.0524 0001636  82.4809 277.6369 15.08829490 54657,6917.913,95.438,540.909,538.646,0.0
52602.0,STARLINK-4012,PAYLOAD,2023-05-07 16:11:47,15.08832722,0.0001184,53.2156,254.4632,85.3531,274.7597,-5.3192e-05,-1.134e-05,0.0,0 STARLINK-4012,1 52602U 22052E   23127.67485862 -.00001134  00000-0 -53192-4 0  9992,2 52602  53.2156 254.4632 0001184  85.3531 274.7597 15.08832722 55104,6917.903,95.438,540.587,538.949,0.0
52602.0,STARLINK-4012,PAYLOAD,2023-05-08 01:44:05,15.08841033,0.0001203,53.2159,252.6786,84.145,275.9679,3.8395e-05,3.23e-06,0.0,0 STARLINK-4012,1 52602U 22052E   23128.07229126  .00000323  00000-0  38395-4 0  9991,2 52602  53.2159 252.6786 0001203  84.1450 275.9679 15.08841033 54733,6917.877,95.437,540.574,538.91,0.0
52602.0,STARLINK-4012,PAYLOAD,2023-05-08 12:51:47,15.0885036,9.17e-05,53.216,250.5965,88.216,271.8937,0.00014757,2.062e-05,0.0,0 STARLINK-4012,1 52602U 22052E   23128.53596078  .00002062  00000-0  14757-3 0  9992,2 52602  53.2160 250.5965 0000917  88.2160 271.8937 15.08850360 54808,6917.849,95.437,540.348,539.079,0.0
52602.0,STARLINK-4012,PAYLOAD,2023-05-08 14:27:10,15.08851766,0.0001011,53.2169,250.2964,93.5801,266.5306,0.00015989,2.259e-05,0.0,0 STARLINK-4012,1 52602U 22052E   23128.60220008  .00002259  00000-0  15989-3 0  9993,2 52602  53.2169 250.2964 0001011  93.5801 266.5306 15.08851766 55241,6917.844,95.437,540.409,539.01,0.0
52602.0,STARLINK-4012,PAYLOAD,2023-05-09 14:17:57,15.08845619,9.56e-05,53.2151,245.8407,71.1723,288.9373,0.00019225,2.774e-05,0.0,0 STARLINK-4012,1 52602U 22052E   23129.59580924  .00002774  00000-0  19225-3 0  9997,2 52602  53.2151 245.8407 0000956  71.1723 288.9373 15.08845619 55394,6917.863,95.437,540.39,539.067,0.0
52602.0,STARLINK-4012,PAYLOAD,2023-05-10 12:33:22,15.08840046,9.51e-05,53.215,241.6769,80.9889,279.121,1.014e-05,-1.26e-06,0.0,0 STARLINK-4012,1 52602U 22052E   23130.52317162 -.00000126  00000-0  10140-4 0  9992,2 52602  53.2150 241.6769 0000951  80.9889 279.1210 15.08840046 55531,6917.88,95.438,540.403,539.087,0.0
52602.0,STARLINK-4012,PAYLOAD,2023-05-10 15:44:07,15.08845014,9.67e-05,53.2157,241.0798,99.9248,260.1854,7.6899e-05,9.36e-06,0.0,0 STARLINK-4012,1 52602U 22052E   23130.65564780  .00000936  00000-0  76899-4 0  9997,2 52602  53.2157 241.0798 0000967  99.9248 260.1854 15.08845014 55556,6917.865,95.437,540.399,539.061,0.0
52602.0,STARLINK-4012,PAYLOAD,2023-05-11 10:48:45,15.08839504,0.0001132,53.2168,237.5095,106.2675,253.8442,5.6757e-05,6.16e-06,0.0,0 STARLINK-4012,1 52602U 22052E   23131.45053120  .00000616  00000-0  56757-4 0  9993,2 52602  53.2168 237.5095 0001132 106.2675 253.8442 15.08839504 55671,6917.882,95.438,540.53,538.964,0.0
52602.0,STARLINK-4012,PAYLOAD,2023-05-11 13:59:32,15.0884354,0.0001148,53.2166,236.915,103.5291,256.5829,7.0931e-05,8.41e-06,0.0,0 STARLINK-4012,1 52602U 22052E   23131.58300929  .00000841  00000-0  70931-4 0  9999,2 52602  53.2166 236.9150 0001148 103.5291 256.5829 15.08843540 55691,6917.87,95.437,540.529,538.94,0.0
52602.0,STARLINK-4012,PAYLOAD,2023-05-11 23:31:50,15.08840346,0.0001157,53.2167,235.1312,95.9596,264.1528,4.2158e-05,3.83e-06,0.0,0 STARLINK-4012,1 52602U 22052E   23131.98045017  .00000383  00000-0  42158-4 0  9998,2 52602  53.2167 235.1312 0001157  95.9596 264.1528 15.08840346 55754,6917.879,95.438,540.545,538.944,0.0
